ONEWEB-0093             
1 45444U 20020W   25045.92243625 -.00000464  00000+0 -13448-2 0  9991
2 45444  87.8876 118.1807 0002070 110.3393 249.7957 13.11416407238815
ONEWEB-0029             
1 45445U 20020X   25045.94095422  .00000333  00000+0  90332-3 0  9995
2 45445  87.8876 118.1905 0001892 109.2117 250.9216 13.11418439238793
ONEWEB-0068             
1 45446U 20020Y   25045.61696457 -.00000281  00000+0 -82858-3 0  9993
2 45446  87.8873 118.2423 0001877 108.4246 251.7086 13.11417018238699
ONEWEB-0046             
1 45447U 20020Z   25045.91380521 -.00000529  00000+0 -15295-2 0  9994
2 45447  87.8873 118.1932 0001619 106.1477 253.9830 13.11414540238743
ONEWEB-0063             
1 45448U 20020AA  25045.94265317  .00000293  00000+0  78950-3 0  9997
2 45448  87.8876 118.1867 0001702  98.5186 261.6135 13.11417404238834
ONEWEB-0019             
1 45449U 20020AB  25045.91719608 -.00000516  00000+0 -14929-2 0  9997
2 45449  87.8878 118.2046 0001971  99.3758 260.7593 13.11414602238676
